O3B FM8
1 40079U 14038A   24096.54459139 -.00000019  00000-0  00000-0 0  9998
2 40079   0.0580   2.0583 0003330  60.1323 297.8416  5.00114509172896
O3B FM5
1 39188U 13031A   24096.71702667 -.00000019  00000-0  00000-0 0  9995
2 39188   0.0528  22.1630 0002776 347.7291 350.1118  5.00114919196897
O3B FM9
1 40351U 14083D   24096.66547075 -.00000019  00000-0  00000-0 0  9991
2 40351   0.0555  10.6939 0002629   3.1825 346.1293  5.00114992169922
O3B FM4
1 39189U 13031B   24094.57369749 -.00000017  00000-0  00000-0 0  9996
2 39189   0.0613 355.1636 0002803  12.2664 352.5730  5.00114900196804
O3B FM12
1 40350U 14083C   24094.83979040 -.00000018  00000-0  00000-0 0  9997
2 40350   0.0545   8.6989 0002458   4.9788 346.3277  5.00115563169681
O3B FM2
1 39190U 13031C   24096.66464784 -.00000019  00000-0  00000-0 0  9997
2 39190   0.0645 351.7289 0002664  20.9074 347.3688  5.00115417196968
O3B FM11
1 40349U 14083B   24096.61150369 -.00000019  00000-0  00000-0 0  9999
2 40349   0.0547   9.7604 0002311 350.9255 359.3128  5.00115550169762
O3B FM3
1 40082U 14038D   24094.77279815 -.00000018  00000-0  00000-0 0  9995
2 40082   0.0588   0.9398 0002778  13.7967 345.2704  5.00115345177704
O3B FM10
1 40348U 14083A   24096.59828126 -.00000019  00000-0  00000-0 0  9998
2 40348   0.0506   7.1615 0002642   7.1220 345.7224  5.00115408169746
O3B FM7
1 40081U 14038C   24096.71819424 -.00000019  00000-0  00000-0 0  9997
2 40081   0.0577   1.0973 0002600  14.3004 344.6086  5.00115257177680
O3B FM6
1 40080U 14038B   24097.09102693 -.00000019  00000-0  00000+0 0  9990
2 40080   0.0622   0.6499 0002993 337.8767  21.4592  5.00116040178035